[{"OBJECT_NAME":"NUSHSAT1","OBJECT_ID":"2025-052B","EPOCH":"2026-03-09T15:31:41.225952","MEAN_MOTION":15.31903202,"ECCENTRICITY":0.0005501,"INCLINATION":97.4095,"RA_OF_ASC_NODE":325.7239,"ARG_OF_PERICENTER":84.7512,"MEAN_ANOMALY":275.4357,"EPHEMERIS_TYPE":0,"CLASSIFICATION_TYPE":"U","NORAD_CAT_ID":63211,"ELEMENT_SET_NO":999,"REV_AT_EPOCH":5488,"BSTAR":0.00074857,"MEAN_MOTION_DOT":0.00023034,"MEAN_MOTION_DDOT":0},{"OBJECT_NAME":"STARLINK-35256","OBJECT_ID":"2025-232G","EPOCH":"2026-03-09T12:35:51.683136","MEAN_MOTION":15.3020558,"ECCENTRICITY":0.0001243,"INCLINATION":53.1573,"RA_OF_ASC_NODE":104.4402,"ARG_OF_PERICENTER":76.3858,"MEAN_ANOMALY":283.7281,"EPHEMERIS_TYPE":0,"CLASSIFICATION_TYPE":"U","NORAD_CAT_ID":66011,"ELEMENT_SET_NO":999,"REV_AT_EPOCH":2341,"BSTAR":0.000602,"MEAN_MOTION_DOT":0.00017516,"MEAN_MOTION_DDOT":0}]
