NUSHSAT1                
1 63211U 25052B   26068.64700493  .00023034  00000+0  74857-3 0  9997
2 63211  97.4095 325.7239 0005501  84.7512 275.4357 15.31903202 54882
STARLINK-35256          
1 66011U 25232G   26068.52490374  .00017516  00000+0  60200-3 0  9994
2 66011  53.1573 104.4402 0001243  76.3858 283.7281 15.30205580 23412
